[{"OBJECT_NAME":"IRIDIUM 104","OBJECT_ID":"2017-003F","EPOCH":"2026-03-09T17:16:26.282496","MEAN_MOTION":14.34217394,"ECCENTRICITY":0.0002202,"INCLINATION":86.3982,"RA_OF_ASC_NODE":130.0736,"ARG_OF_PERICENTER":87.6094,"MEAN_ANOMALY":272.5354,"EPHEMERIS_TYPE":0,"CLASSIFICATION_TYPE":"U","NORAD_CAT_ID":41922,"ELEMENT_SET_NO":999,"REV_AT_EPOCH":47901,"BSTAR":-2.584642e-5,"MEAN_MOTION_DOT":-5.3e-7,"MEAN_MOTION_DDOT":0},{"OBJECT_NAME":"CZ-6A DEB","OBJECT_ID":"2022-151AGL","EPOCH":"2026-03-04T00:13:48.490464","MEAN_MOTION":14.36260445,"ECCENTRICITY":0.01043319,"INCLINATION":98.6715,"RA_OF_ASC_NODE":85.0337,"ARG_OF_PERICENTER":44.1209,"MEAN_ANOMALY":316.824,"EPHEMERIS_TYPE":0,"CLASSIFICATION_TYPE":"U","NORAD_CAT_ID":56660,"ELEMENT_SET_NO":999,"REV_AT_EPOCH":14929,"BSTAR":0.0016936151,"MEAN_MOTION_DOT":5.221e-5,"MEAN_MOTION_DDOT":0}]
